{
  "type": "FeatureCollection",
  "features": [
    {
      "type": "Feature",
      "properties": {
        "norad_id": 66514,
        "name": "SENTINEL-6B",
        "group": "last-30-days",
        "lat": 64.53807763682639,
        "lon": -138.56891224401696,
        "alt_km": 1334.3718052609174,
        "timestamp": "2025-12-17T13:48:36.278270+00:00",
        "meta_object_name": "SENTINEL-6B",
        "meta_object_id": "2025-264A",
        "meta_epoch": "2025-12-12T06:01:21.430272",
        "meta_mean_motion": 12.81479576,
        "meta_eccentricity": 0.0007847,
        "meta_inclination": 66.0385,
        "meta_ra_of_asc_node": 163.4531,
        "meta_arg_of_pericenter": 270.1745,
        "meta_mean_anomaly": 89.8371,
        "meta_ephemeris_type": 0,
        "meta_classification_type": "U",
        "meta_norad_cat_id": 66514,
        "meta_element_set_no": 999,
        "meta_rev_at_epoch": 322,
        "meta_bstar": 0.00018864317,
        "meta_mean_motion_dot": -1.7e-07,
        "meta_mean_motion_ddot": 0,
        "tle_line1": "1 66514U 25264A   25346.25094248 -.00000017  00000+0  18864-3 0  9993",
        "tle_line2": "2 66514  66.0385 163.4531 0007847 270.1745  89.8371 12.81479576  3220"
      },
      "geometry": {
        "type": "Point",
        "coordinates": [
          -138.56891224401696,
          64.53807763682639
        ]
      }
    },
    {
      "type": "Feature",
      "properties": {
        "norad_id": 66516,
        "name": "STARLINK-35924",
        "group": "last-30-days",
        "lat": -31.008118750800605,
        "lon": -13.911118170951228,
        "alt_km": 445.7200746123617,
        "timestamp": "2025-12-17T13:48:36.278331+00:00",
        "meta_object_name": "STARLINK-35924",
        "meta_object_id": "2025-265A",
        "meta_epoch": "2025-12-17T03:07:52.902624",
        "meta_mean_motion": 15.40727417,
        "meta_eccentricity": 0.00016061,
        "meta_inclination": 43.0004,
        "meta_ra_of_asc_node": 28.8193,
        "meta_arg_of_pericenter": 277.4675,
        "meta_mean_anomaly": 82.5999,
        "meta_ephemeris_type": 0,
        "meta_classification_type": "U",
        "meta_norad_cat_id": 66516,
        "meta_element_set_no": 999,
        "meta_rev_at_epoch": 443,
        "meta_bstar": 0.00064167592,
        "meta_mean_motion_dot": 0.00026619,
        "meta_mean_motion_ddot": 0,
        "tle_line1": "1 66516U 25265A   25351.13047341  .00026619  00000+0  64168-3 0  9994",
        "tle_line2": "2 66516  43.0004  28.8193 0001606 277.4675  82.5999 15.40727417  4430"
      },
      "geometry": {
        "type": "Point",
        "coordinates": [
          -13.911118170951228,
          -31.008118750800605
        ]
      }
    },
    {
      "type": "Feature",
      "properties": {
        "norad_id": 66517,
        "name": "STARLINK-35937",
        "group": "last-30-days",
        "lat": 27.909558823445675,
        "lon": 171.16987972493845,
        "alt_km": 435.40005686766654,
        "timestamp": "2025-12-17T13:48:36.278349+00:00",
        "meta_object_name": "STARLINK-35937",
        "meta_object_id": "2025-265B",
        "meta_epoch": "2025-12-17T08:00:04.999680",
        "meta_mean_motion": 15.43637434,
        "meta_eccentricity": 0.00013509,
        "meta_inclination": 43.0009,
        "meta_ra_of_asc_node": 27.2088,
        "meta_arg_of_pericenter": 254.6657,
        "meta_mean_anomaly": 335.9129,
        "meta_ephemeris_type": 0,
        "meta_classification_type": "U",
        "meta_norad_cat_id": 66517,
        "meta_element_set_no": 999,
        "meta_rev_at_epoch": 573,
        "meta_bstar": -0.058698177,
        "meta_mean_motion_dot": -0.02405287,
        "meta_mean_motion_ddot": 0,
        "tle_line1": "1 66517U 25265B   25351.33339120 -.02405287  00000+0 -58698-1 0  9991",
        "tle_line2": "2 66517  43.0009  27.2088 0001350 254.6657 335.9129 15.43637434  5731"
      },
      "geometry": {
        "type": "Point",
        "coordinates": [
          171.16987972493845,
          27.909558823445675
        ]
      }
    },
    {
      "type": "Feature",
      "properties": {
        "norad_id": 66518,
        "name": "STARLINK-35962",
        "group": "last-30-days",
        "lat": 31.704099036525463,
        "lon": 67.53485532239425,
        "alt_km": 440.49205304674433,
        "timestamp": "2025-12-17T13:48:36.278362+00:00",
        "meta_object_name": "STARLINK-35962",
        "meta_object_id": "2025-265C",
        "meta_epoch": "2025-12-17T08:00:04.999680",
        "meta_mean_motion": 15.40637733,
        "meta_eccentricity": 0.00022024,
        "meta_inclination": 43.0006,
        "meta_ra_of_asc_node": 27.4106,
        "meta_arg_of_pericenter": 256.2652,
        "meta_mean_anomaly": 250.2451,
        "meta_ephemeris_type": 0,
        "meta_classification_type": "U",
        "meta_norad_cat_id": 66518,
        "meta_element_set_no": 999,
        "meta_rev_at_epoch": 573,
        "meta_bstar": 0.00034819706,
        "meta_mean_motion_dot": 0.00014239,
        "meta_mean_motion_ddot": 0,
        "tle_line1": "1 66518U 25265C   25351.33339120  .00014239  00000+0  34820-3 0  9994",
        "tle_line2": "2 66518  43.0006  27.4106 0002202 256.2652 250.2451 15.40637733  5738"
      },
      "geometry": {
        "type": "Point",
        "coordinates": [
          67.53485532239425,
          31.704099036525463
        ]
      }
    },
    {
      "type": "Feature",
      "properties": {
        "norad_id": 66519,
        "name": "STARLINK-35931",
        "group": "last-30-days",
        "lat": 8.027534150025344,
        "lon": -162.9800694103044,
        "alt_km": 413.9811670329982,
        "timestamp": "2025-12-17T13:48:36.278375+00:00",
        "meta_object_name": "STARLINK-35931",
        "meta_object_id": "2025-265D",
        "meta_epoch": "2025-12-17T03:48:47.216448",
        "meta_mean_motion": 15.50621764,
        "meta_eccentricity": 0.00019004,
        "meta_inclination": 42.998,
        "meta_ra_of_asc_node": 28.1628,
        "meta_arg_of_pericenter": 280.8936,
        "meta_mean_anomaly": 79.1711,
        "meta_ephemeris_type": 0,
        "meta_classification_type": "U",
        "meta_norad_cat_id": 66519,
        "meta_element_set_no": 999,
        "meta_rev_at_epoch": 444,
        "meta_bstar": 0.0010363401,
        "meta_mean_motion_dot": 0.00061025,
        "meta_mean_motion_ddot": 0,
        "tle_line1": "1 66519U 25265D   25351.15887982  .00061025  00000+0  10363-2 0  9999",
        "tle_line2": "2 66519  42.9980  28.1628 0001900 280.8936  79.1711 15.50621764  4449"
      },
      "geometry": {
        "type": "Point",
        "coordinates": [
          -162.9800694103044,
          8.027534150025344
        ]
      }
    },
    {
      "type": "Feature",
      "properties": {
        "norad_id": 66520,
        "name": "STARLINK-35952",
        "group": "last-30-days",
        "lat": 0.38575013189079943,
        "lon": 26.546083434102517,
        "alt_km": 443.81290998095665,
        "timestamp": "2025-12-17T13:48:36.278389+00:00",
        "meta_object_name": "STARLINK-35952",
        "meta_object_id": "2025-265E",
        "meta_epoch": "2025-12-17T00:00:02.999808",
        "meta_mean_motion": 15.40649949,
        "meta_eccentricity": 0.00010936,
        "meta_inclination": 43.0006,
        "meta_ra_of_asc_node": 29.4485,
        "meta_arg_of_pericenter": 259.7367,
        "meta_mean_anomaly": 145.7624,
        "meta_ephemeris_type": 0,
        "meta_classification_type": "U",
        "meta_norad_cat_id": 66520,
        "meta_element_set_no": 999,
        "meta_rev_at_epoch": 567,
        "meta_bstar": 0.0013290392,
        "meta_mean_motion_dot": 0.00055526,
        "meta_mean_motion_ddot": 0,
        "tle_line1": "1 66520U 25265E   25351.00003472  .00055526  00000+0  13290-2 0  9990",
        "tle_line2": "2 66520  43.0006  29.4485 0001093 259.7367 145.7624 15.40649949  5676"
      },
      "geometry": {
        "type": "Point",
        "coordinates": [
          26.546083434102517,
          0.38575013189079943
        ]
      }
    },
    {
      "type": "Feature",
      "properties": {
        "norad_id": 66521,
        "name": "STARLINK-35915",
        "group": "last-30-days",
        "lat": 42.936973821032915,
        "lon": 112.76201139524005,
        "alt_km": 437.9737842460381,
        "timestamp": "2025-12-17T13:48:36.278401+00:00",
        "meta_object_name": "STARLINK-35915",
        "meta_object_id": "2025-265F",
        "meta_epoch": "2025-12-17T08:00:04.999680",
        "meta_mean_motion": 15.40684524,
        "meta_eccentricity": 0.00010527,
        "meta_inclination": 43.0008,
        "meta_ra_of_asc_node": 27.3197,
        "meta_arg_of_pericenter": 266.4325,
        "meta_mean_anomaly": 277.2548,
        "meta_ephemeris_type": 0,
        "meta_classification_type": "U",
        "meta_norad_cat_id": 66521,
        "meta_element_set_no": 999,
        "meta_rev_at_epoch": 573,
        "meta_bstar": 0.0002646176,
        "meta_mean_motion_dot": 0.0001076,
        "meta_mean_motion_ddot": 0,
        "tle_line1": "1 66521U 25265F   25351.33339120  .00010760  00000+0  26462-3 0  9996",
        "tle_line2": "2 66521  43.0008  27.3197 0001052 266.4325 277.2548 15.40684524  5731"
      },
      "geometry": {
        "type": "Point",
        "coordinates": [
          112.76201139524005,
          42.936973821032915
        ]
      }
    }
  ]
}